[{"OBJECT_NAME":"CREW DRAGON 12","OBJECT_ID":"2026-031A","EPOCH":"2026-03-11T04:35:18.514464","MEAN_MOTION":15.48575655,"ECCENTRICITY":0.00079324,"INCLINATION":51.6325,"RA_OF_ASC_NODE":64.9326,"ARG_OF_PERICENTER":179.9008,"MEAN_ANOMALY":180.1983,"EPHEMERIS_TYPE":0,"CLASSIFICATION_TYPE":"U","NORAD_CAT_ID":67796,"ELEMENT_SET_NO":999,"REV_AT_EPOCH":55645,"BSTAR":0.00017769709,"MEAN_MOTION_DOT":9.215e-5,"MEAN_MOTION_DDOT":0}]
